SWARM B                 
1 39451U 13067A   17345.91452118  .00000351  00000-0  14152-4 0  9996
2 39451  87.7556 194.7678 0003973  92.6155 267.5545 15.21199305210300
